[
    {
        "Altitude(m)": 553475.1995373708,
        "Argument of Periapsis(deg)": 0.0,
        "Eccentricity": 0.0,
        "Inclination(deg)": 53.0,
        "Latitude(deg)": 13.004253685502315,
        "Longitude(deg)": -45.002424906726496,
        "Mean Anomaly(deg)": 16.363599999999998,
        "RAAN(deg)": 45.0,
        "Satellite Name": "Starlink Shell 1 199",
        "Satellite Number": 199,
        "Semi-Major Axis(m)": 6931778.249405717,
        "Time(s)": 0
    },
    {
        "Altitude(m)": 553482.4503577675,
        "Argument of Periapsis(deg)": 0.00034857847951123687,
        "Eccentricity": 0.0,
        "Inclination(deg)": 53.0,
        "Latitude(deg)": 13.500195546143841,
        "Longitude(deg)": -44.64617724445905,
        "Mean Anomaly(deg)": 16.990431203556714,
        "RAAN(deg)": 44.99948122992253,
        "Satellite Name": "Starlink Shell 1 199",
        "Satellite Number": 199,
        "Semi-Major Axis(m)": 6931778.249405717,
        "Time(s)": 10
    },
    {
        "Altitude(m)": 553492.2334828447,
        "Argument of Periapsis(deg)": 0.0006971569590224737,
        "Eccentricity": 0.0,
        "Inclination(deg)": 53.0,
        "Latitude(deg)": 13.9954896238327,
        "Longitude(deg)": -44.2882835468755,
        "Mean Anomaly(deg)": 17.617262407113433,
        "RAAN(deg)": 44.99896245984505,
        "Satellite Name": "Starlink Shell 1 199",
        "Satellite Number": 199,
        "Semi-Major Axis(m)": 6931778.249405717,
        "Time(s)": 20
    },
    {
        "Altitude(m)": 553504.5215621821,
        "Argument of Periapsis(deg)": 0.0010457354385337105,
        "Eccentricity": 0.0,
        "Inclination(deg)": 53.0,
        "Latitude(deg)": 14.490108251139956,
        "Longitude(deg)": -43.92867647341319,
        "Mean Anomaly(deg)": 18.244093610670138,
        "RAAN(deg)": 44.99844368976758,
        "Satellite Name": "Starlink Shell 1 199",
        "Satellite Number": 199,
        "Semi-Major Axis(m)": 6931778.249405717,
        "Time(s)": 30
    },
    {
        "Altitude(m)": 553519.2861128221,
        "Argument of Periapsis(deg)": 0.0013943139180449475,
        "Eccentricity": 0.0,
        "Inclination(deg)": 53.0,
        "Latitude(deg)": 14.984023388063168,
        "Longitude(deg)": -43.56728744634928,
        "Mean Anomaly(deg)": 18.870924814226864,
        "RAAN(deg)": 44.997924919690114,
        "Satellite Name": "Starlink Shell 1 199",
        "Satellite Number": 199,
        "Semi-Major Axis(m)": 6931778.249405717,
        "Time(s)": 40
    },
    {
        "Altitude(m)": 553536.4975360783,
        "Argument of Periapsis(deg)": 0.0017428923975561844,
        "Eccentricity": 0.0,
        "Inclination(deg)": 53.0,
        "Latitude(deg)": 15.477206605581902,
        "Longitude(deg)": -43.20404763238998,
        "Mean Anomaly(deg)": 19.497756017783583,
        "RAAN(deg)": 44.99740614961263,
        "Satellite Name": "Starlink Shell 1 199",
        "Satellite Number": 199,
        "Semi-Major Axis(m)": 6931778.249405717,
        "Time(s)": 50
    },
    {
        "Altitude(m)": 553556.1251349224,
        "Argument of Periapsis(deg)": 0.002091470877067421,
        "Eccentricity": 0.0,
        "Inclination(deg)": 53.0,
        "Latitude(deg)": 15.969629068867867,
        "Longitude(deg)": -42.83888741140048,
        "Mean Anomaly(deg)": 20.12458722134029,
        "RAAN(deg)": 44.99688737953516,
        "Satellite Name": "Starlink Shell 1 199",
        "Satellite Number": 199,
        "Semi-Major Axis(m)": 6931778.249405717,
        "Time(s)": 60
    },
    {
        "Altitude(m)": 553578.1371318724,
        "Argument of Periapsis(deg)": 0.0024400493565786582,
        "Eccentricity": 0.0,
        "Inclination(deg)": 53.0,
        "Latitude(deg)": 16.461261520135434,
        "Longitude(deg)": -42.47173584517012,
        "Mean Anomaly(deg)": 20.751418424897015,
        "RAAN(deg)": 44.99636860945769,
        "Satellite Name": "Starlink Shell 1 199",
        "Satellite Number": 199,
        "Semi-Major Axis(m)": 6931778.249405717,
        "Time(s)": 70
    },
    {
        "Altitude(m)": 553602.5006874251,
        "Argument of Periapsis(deg)": 0.002788627836089895,
        "Eccentricity": 0.0,
        "Inclination(deg)": 53.0,
        "Latitude(deg)": 16.95207426111821,
        "Longitude(deg)": -42.10252165911156,
        "Mean Anomaly(deg)": 21.378249628453723,
        "RAAN(deg)": 44.99584983938021,
        "Satellite Name": "Starlink Shell 1 199",
        "Satellite Number": 199,
        "Semi-Major Axis(m)": 6931778.249405717,
        "Time(s)": 80
    },
    {
        "Altitude(m)": 553629.1819189817,
        "Argument of Periapsis(deg)": 0.0031372063156011316,
        "Eccentricity": 0.0,
        "Inclination(deg)": 53.0,
        "Latitude(deg)": 17.442037135162874,
        "Longitude(deg)": -41.731172711177436,
        "Mean Anomaly(deg)": 22.00508083201044,
        "RAAN(deg)": 44.99533106930274,
        "Satellite Name": "Starlink Shell 1 199",
        "Satellite Number": 199,
        "Semi-Major Axis(m)": 6931778.249405717,
        "Time(s)": 90
    },
    {
        "Altitude(m)": 553658.1459202727,
        "Argument of Periapsis(deg)": 0.0034857847951123688,
        "Eccentricity": 0.0,
        "Inclination(deg)": 53.0,
        "Latitude(deg)": 17.931119508926425,
        "Longitude(deg)": -41.35761546089837,
        "Mean Anomaly(deg)": 22.631912035567158,
        "RAAN(deg)": 44.994812299225266,
        "Satellite Name": "Starlink Shell 1 199",
        "Satellite Number": 199,
        "Semi-Major Axis(m)": 6931778.249405717,
        "Time(s)": 100
    },
    {
        "Altitude(m)": 553689.3567812797,
        "Argument of Periapsis(deg)": 0.003834363274623606,
        "Eccentricity": 0.0,
        "Inclination(deg)": 53.0,
        "Latitude(deg)": 18.41929025366244,
        "Longitude(deg)": -40.98177595145235,
        "Mean Anomaly(deg)": 23.25874323912387,
        "RAAN(deg)": 44.9942935291478,
        "Satellite Name": "Starlink Shell 1 199",
        "Satellite Number": 199,
        "Semi-Major Axis(m)": 6931778.249405717,
        "Time(s)": 110
    },
    {
        "Altitude(m)": 553722.7776086347,
        "Argument of Periapsis(deg)": 0.004182941754134842,
        "Eccentricity": 0.0,
        "Inclination(deg)": 53.0,
        "Latitude(deg)": 18.906517726088786,
        "Longitude(deg)": -40.60357927905846,
        "Mean Anomaly(deg)": 23.885574442680575,
        "RAAN(deg)": 44.99377475907033,
        "Satellite Name": "Starlink Shell 1 199",
        "Satellite Number": 199,
        "Semi-Major Axis(m)": 6931778.249405717,
        "Time(s)": 120
    },
    {
        "Altitude(m)": 553758.3705464612,
        "Argument of Periapsis(deg)": 0.004531520233646079,
        "Eccentricity": 0.0,
        "Inclination(deg)": 53.0,
        "Latitude(deg)": 19.39276974882252,
        "Longitude(deg)": -40.22294906261266,
        "Mean Anomaly(deg)": 24.512405646237298,
        "RAAN(deg)": 44.99325598899285,
        "Satellite Name": "Starlink Shell 1 199",
        "Satellite Number": 199,
        "Semi-Major Axis(m)": 6931778.249405717,
        "Time(s)": 130
    },
    {
        "Altitude(m)": 553796.0967977176,
        "Argument of Periapsis(deg)": 0.0048800987131573164,
        "Eccentricity": 0.0,
        "Inclination(deg)": 53.0,
        "Latitude(deg)": 19.87801359036938,
        "Longitude(deg)": -39.83980842648562,
        "Mean Anomaly(deg)": 25.139236849794024,
        "RAAN(deg)": 44.99273721891538,
        "Satellite Name": "Starlink Shell 1 199",
        "Satellite Number": 199,
        "Semi-Major Axis(m)": 6931778.249405717,
        "Time(s)": 140
    },
    {
        "Altitude(m)": 553835.9166459184,
        "Argument of Periapsis(deg)": 0.005228677192668553,
        "Eccentricity": 0.0,
        "Inclination(deg)": 53.0,
        "Latitude(deg)": 20.36221594466022,
        "Longitude(deg)": -39.45407947079186,
        "Mean Anomaly(deg)": 25.76606805335073,
        "RAAN(deg)": 44.99221844883791,
        "Satellite Name": "Starlink Shell 1 199",
        "Satellite Number": 199,
        "Semi-Major Axis(m)": 6931778.249405717,
        "Time(s)": 150
    },
    {
        "Altitude(m)": 553877.7894773529,
        "Argument of Periapsis(deg)": 0.00557725567217979,
        "Eccentricity": 0.0,
        "Inclination(deg)": 53.0,
        "Latitude(deg)": 20.845342910121975,
        "Longitude(deg)": -39.06568274206026,
        "Mean Anomaly(deg)": 26.392899256907445,
        "RAAN(deg)": 44.99169967876043,
        "Satellite Name": "Starlink Shell 1 199",
        "Satellite Number": 199,
        "Semi-Major Axis(m)": 6931778.249405717,
        "Time(s)": 160
    },
    {
        "Altitude(m)": 553921.6738036677,
        "Argument of Periapsis(deg)": 0.0059258341516910265,
        "Eccentricity": 0.0,
        "Inclination(deg)": 53.0,
        "Latitude(deg)": 21.32735996827109,
        "Longitude(deg)": -38.67453821724323,
        "Mean Anomaly(deg)": 27.01973046046416,
        "RAAN(deg)": 44.99118090868296,
        "Satellite Name": "Starlink Shell 1 199",
        "Satellite Number": 199,
        "Semi-Major Axis(m)": 6931778.249405717,
        "Time(s)": 170
    },
    {
        "Altitude(m)": 553967.5272848953,
        "Argument of Periapsis(deg)": 0.006274412631202263,
        "Eccentricity": 0.0,
        "Inclination(deg)": 53.0,
        "Latitude(deg)": 21.808231961823644,
        "Longitude(deg)": -38.28056477538918,
        "Mean Anomaly(deg)": 27.64656166402086,
        "RAAN(deg)": 44.99066213860549,
        "Satellite Name": "Starlink Shell 1 199",
        "Satellite Number": 199,
        "Semi-Major Axis(m)": 6931778.249405717,
        "Time(s)": 180
    }
]